{"fetched_at":"2026-07-18T06:28:18.941Z","source":"https://celestrak.org/NORAD/elements/gp.php?NAME=NUSAT&FORMAT=JSON","constellation":"satellogic","records":[{"OBJECT_NAME":"NUSAT-26 (M SOMERVILLE)","OBJECT_ID":"2022-033AD","EPOCH":"2026-07-17T23:39:19.836864","CLASSIFICATION_TYPE":"U","MEAN_MOTION":15.43309206,"ECCENTRICITY":0.00071879,"INCLINATION":97.2333,"RA_OF_ASC_NODE":277.8483,"ARG_OF_PERICENTER":129.1987,"MEAN_ANOMALY":230.9901,"EPHEMERIS_TYPE":0,"NORAD_CAT_ID":52184,"ELEMENT_SET_NO":999,"REV_AT_EPOCH":10945,"BSTAR":0.00021220837,"MEAN_MOTION_DOT":0.00009372,"MEAN_MOTION_DDOT":0},{"OBJECT_NAME":"NUSAT-33 (ALBANIA-2)","OBJECT_ID":"2023-001AQ","EPOCH":"2026-07-17T23:42:22.425120","CLASSIFICATION_TYPE":"U","MEAN_MOTION":15.28293015,"ECCENTRICITY":0.00046754,"INCLINATION":97.305,"RA_OF_ASC_NODE":259.3046,"ARG_OF_PERICENTER":301.6839,"MEAN_ANOMALY":58.3945,"EPHEMERIS_TYPE":0,"NORAD_CAT_ID":55047,"ELEMENT_SET_NO":999,"REV_AT_EPOCH":19701,"BSTAR":0.00018153108,"MEAN_MOTION_DOT":0.0000493,"MEAN_MOTION_DDOT":0},{"OBJECT_NAME":"NUSAT-35 (WILLIAMINA)","OBJECT_ID":"2023-001AR","EPOCH":"2026-07-17T23:43:12.462816","CLASSIFICATION_TYPE":"U","MEAN_MOTION":15.35867281,"ECCENTRICITY":0.00101212,"INCLINATION":97.1829,"RA_OF_ASC_NODE":250.9706,"ARG_OF_PERICENTER":359.9821,"MEAN_ANOMALY":0.1421,"EPHEMERIS_TYPE":0,"NORAD_CAT_ID":55048,"ELEMENT_SET_NO":999,"REV_AT_EPOCH":19713,"BSTAR":0.00021814696,"MEAN_MOTION_DOT":0.00007548,"MEAN_MOTION_DDOT":0},{"OBJECT_NAME":"NUSAT-39 (TIKVAH ALPER)","OBJECT_ID":"2023-054Z","EPOCH":"2026-07-17T21:22:57.630720","CLASSIFICATION_TYPE":"U","MEAN_MOTION":15.48106195,"ECCENTRICITY":0.00015472,"INCLINATION":97.3084,"RA_OF_ASC_NODE":108.9557,"ARG_OF_PERICENTER":302.7274,"MEAN_ANOMALY":57.3827,"EPHEMERIS_TYPE":0,"NORAD_CAT_ID":56201,"ELEMENT_SET_NO":999,"REV_AT_EPOCH":18320,"BSTAR":0.00031117515,"MEAN_MOTION_DOT":0.00016242,"MEAN_MOTION_DDOT":0},{"OBJECT_NAME":"NUSAT-38 (MARIA AGNESI)","OBJECT_ID":"2023-054AA","EPOCH":"2026-07-17T22:40:24.384288","CLASSIFICATION_TYPE":"U","MEAN_MOTION":15.51307825,"ECCENTRICITY":0.00083815,"INCLINATION":97.3025,"RA_OF_ASC_NODE":109.7566,"ARG_OF_PERICENTER":315.3074,"MEAN_ANOMALY":44.7502,"EPHEMERIS_TYPE":0,"NORAD_CAT_ID":56202,"ELEMENT_SET_NO":999,"REV_AT_EPOCH":18327,"BSTAR":0.00033326103,"MEAN_MOTION_DOT":0.00019511,"MEAN_MOTION_DDOT":0},{"OBJECT_NAME":"NUSAT-37 (JOAN CLARKE)","OBJECT_ID":"2023-054AB","EPOCH":"2026-07-17T23:42:41.105664","CLASSIFICATION_TYPE":"U","MEAN_MOTION":15.59786229,"ECCENTRICITY":0.00081616,"INCLINATION":97.2594,"RA_OF_ASC_NODE":106.6989,"ARG_OF_PERICENTER":136.6321,"MEAN_ANOMALY":223.558,"EPHEMERIS_TYPE":0,"NORAD_CAT_ID":56203,"ELEMENT_SET_NO":999,"REV_AT_EPOCH":18344,"BSTAR":0.00039769368,"MEAN_MOTION_DOT":0.00031875,"MEAN_MOTION_DDOT":0},{"OBJECT_NAME":"NUSAT-40 (C SHOEMAKER)","OBJECT_ID":"2023-084M","EPOCH":"2026-07-17T22:37:01.893792","CLASSIFICATION_TYPE":"U","MEAN_MOTION":15.8299617,"ECCENTRICITY":0.00038234,"INCLINATION":97.4867,"RA_OF_ASC_NODE":348.0548,"ARG_OF_PERICENTER":181.2743,"MEAN_ANOMALY":178.8517,"EPHEMERIS_TYPE":0,"NORAD_CAT_ID":56943,"ELEMENT_SET_NO":999,"REV_AT_EPOCH":17366,"BSTAR":0.00051994864,"MEAN_MOTION_DOT":0.0011145,"MEAN_MOTION_DDOT":0},{"OBJECT_NAME":"NUSAT-41 (C PAYNE-G)","OBJECT_ID":"2023-084N","EPOCH":"2026-07-17T16:01:06.758976","CLASSIFICATION_TYPE":"U","MEAN_MOTION":15.29996701,"ECCENTRICITY":0.00066106,"INCLINATION":97.5493,"RA_OF_ASC_NODE":335.8723,"ARG_OF_PERICENTER":228.2334,"MEAN_ANOMALY":131.8341,"EPHEMERIS_TYPE":0,"NORAD_CAT_ID":56944,"ELEMENT_SET_NO":999,"REV_AT_EPOCH":17244,"BSTAR":0.000200382,"MEAN_MOTION_DOT":0.00005742,"MEAN_MOTION_DDOT":0},{"OBJECT_NAME":"NUSAT-42 (M WONENBURGER)","OBJECT_ID":"2023-084AL","EPOCH":"2026-07-17T21:50:04.713792","CLASSIFICATION_TYPE":"U","MEAN_MOTION":15.46581692,"ECCENTRICITY":0.0006828,"INCLINATION":97.5757,"RA_OF_ASC_NODE":344.3491,"ARG_OF_PERICENTER":137.786,"MEAN_ANOMALY":222.3916,"EPHEMERIS_TYPE":0,"NORAD_CAT_ID":56966,"ELEMENT_SET_NO":999,"REV_AT_EPOCH":17282,"BSTAR":0.00026857362,"MEAN_MOTION_DOT":0.00013286,"MEAN_MOTION_DDOT":0},{"OBJECT_NAME":"NUSAT-44 (MARIA MITCHELL)","OBJECT_ID":"2024-043AA","EPOCH":"2026-07-17T22:49:04.023264","CLASSIFICATION_TYPE":"U","MEAN_MOTION":15.29882542,"ECCENTRICITY":0.00065962,"INCLINATION":97.5492,"RA_OF_ASC_NODE":339.685,"ARG_OF_PERICENTER":123.727,"MEAN_ANOMALY":236.46,"EPHEMERIS_TYPE":0,"NORAD_CAT_ID":59122,"ELEMENT_SET_NO":999,"REV_AT_EPOCH":13197,"BSTAR":0.00020609091,"MEAN_MOTION_DOT":0.00005887,"MEAN_MOTION_DDOT":0},{"OBJECT_NAME":"NUSAT-50 (NANCY ROMAN)","OBJECT_ID":"2024-149AB","EPOCH":"2026-07-17T18:34:40.240704","CLASSIFICATION_TYPE":"U","MEAN_MOTION":15.3034508,"ECCENTRICITY":0.00048851,"INCLINATION":97.3778,"RA_OF_ASC_NODE":279.8256,"ARG_OF_PERICENTER":95.5616,"MEAN_ANOMALY":264.6182,"EPHEMERIS_TYPE":0,"NORAD_CAT_ID":60493,"ELEMENT_SET_NO":999,"REV_AT_EPOCH":10680,"BSTAR":0.00017037201,"MEAN_MOTION_DOT":0.00004925,"MEAN_MOTION_DDOT":0},{"OBJECT_NAME":"NUSAT-48 (HENRIETTA LEAVITT)","OBJECT_ID":"2024-149AG","EPOCH":"2026-07-17T23:01:26.562144","CLASSIFICATION_TYPE":"U","MEAN_MOTION":15.30301907,"ECCENTRICITY":0.00050209,"INCLINATION":97.3911,"RA_OF_ASC_NODE":280.3066,"ARG_OF_PERICENTER":150.6549,"MEAN_ANOMALY":209.4975,"EPHEMERIS_TYPE":0,"NORAD_CAT_ID":60498,"ELEMENT_SET_NO":999,"REV_AT_EPOCH":10684,"BSTAR":0.00016732955,"MEAN_MOTION_DOT":0.00004829,"MEAN_MOTION_DDOT":0},{"OBJECT_NAME":"NUSAT-49 (KLARA DAN VON NEUMANN)","OBJECT_ID":"2024-149AJ","EPOCH":"2026-07-17T05:12:44.974944","CLASSIFICATION_TYPE":"U","MEAN_MOTION":15.29800004,"ECCENTRICITY":0.0002525,"INCLINATION":97.3781,"RA_OF_ASC_NODE":279.3028,"ARG_OF_PERICENTER":161.7492,"MEAN_ANOMALY":198.384,"EPHEMERIS_TYPE":0,"NORAD_CAT_ID":60500,"ELEMENT_SET_NO":999,"REV_AT_EPOCH":10672,"BSTAR":0.000061424254,"MEAN_MOTION_DOT":0.00001697,"MEAN_MOTION_DDOT":0},{"OBJECT_NAME":"NUSAT-45 (UZMASAT-1)","OBJECT_ID":"2025-009AH","EPOCH":"2026-07-17T20:38:10.557888","CLASSIFICATION_TYPE":"U","MEAN_MOTION":15.29837885,"ECCENTRICITY":0.00019685,"INCLINATION":97.3587,"RA_OF_ASC_NODE":279.7832,"ARG_OF_PERICENTER":169.1144,"MEAN_ANOMALY":191.014,"EPHEMERIS_TYPE":0,"NORAD_CAT_ID":62640,"ELEMENT_SET_NO":999,"REV_AT_EPOCH":8361,"BSTAR":0.00016586121,"MEAN_MOTION_DOT":0.00004717,"MEAN_MOTION_DDOT":0},{"OBJECT_NAME":"NUSAT-52","OBJECT_ID":"2025-276AC","EPOCH":"2026-07-17T15:06:44.091936","CLASSIFICATION_TYPE":"U","MEAN_MOTION":15.20050193,"ECCENTRICITY":0.00016036,"INCLINATION":97.4195,"RA_OF_ASC_NODE":271.6757,"ARG_OF_PERICENTER":261.2782,"MEAN_ANOMALY":98.8272,"EPHEMERIS_TYPE":0,"NORAD_CAT_ID":66692,"ELEMENT_SET_NO":999,"REV_AT_EPOCH":3504,"BSTAR":0.0001227679,"MEAN_MOTION_DOT":0.0000258,"MEAN_MOTION_DDOT":0},{"OBJECT_NAME":"NUSAT-51 (YVONNE BRILL)","OBJECT_ID":"2025-276CC","EPOCH":"2026-07-17T02:29:06.836640","CLASSIFICATION_TYPE":"U","MEAN_MOTION":15.20578227,"ECCENTRICITY":0.0001872,"INCLINATION":97.42,"RA_OF_ASC_NODE":271.3028,"ARG_OF_PERICENTER":225.3513,"MEAN_ANOMALY":134.757,"EPHEMERIS_TYPE":0,"NORAD_CAT_ID":66740,"ELEMENT_SET_NO":999,"REV_AT_EPOCH":3497,"BSTAR":0.00014256,"MEAN_MOTION_DOT":0.00003054,"MEAN_MOTION_DDOT":0}]}
