NUSAT-26 (M SOMERVILLE) 
1 52184U 22033AD  26198.98564626  .00009372  00000+0  21221-3 0  9993
2 52184  97.2333 277.8483 0007187 129.1987 230.9901 15.43309206109454
NUSAT-33 (ALBANIA-2)    
1 55047U 23001AQ  26198.98775955  .00004930  00000+0  18153-3 0  9994
2 55047  97.3050 259.3046 0004675 301.6839  58.3945 15.28293015197016
NUSAT-35 (WILLIAMINA)   
1 55048U 23001AR  26198.98833869  .00007548  00000+0  21815-3 0  9991
2 55048  97.1829 250.9706 0010121 359.9821   0.1421 15.35867281197136
NUSAT-39 (TIKVAH ALPER) 
1 56201U 23054Z   26198.89094480  .00016242  00000+0  31118-3 0  9997
2 56201  97.3084 108.9557 0001547 302.7274  57.3827 15.48106195183200
NUSAT-38 (MARIA AGNESI) 
1 56202U 23054AA  26198.94472667  .00019511  00000+0  33326-3 0  9996
2 56202  97.3025 109.7566 0008381 315.3074  44.7502 15.51307825183270
NUSAT-37 (JOAN CLARKE)  
1 56203U 23054AB  26198.98797576  .00031875  00000+0  39769-3 0  9994
2 56203  97.2594 106.6989 0008161 136.6321 223.5580 15.59786229183440
NUSAT-40 (C SHOEMAKER)  
1 56943U 23084M   26198.94238303  .00111450  00000+0  51995-3 0  9995
2 56943  97.4867 348.0548 0003823 181.2743 178.8517 15.82996170173662
NUSAT-41 (C PAYNE-G)    
1 56944U 23084N   26198.66743934  .00005742  00000+0  20038-3 0  9996
2 56944  97.5493 335.8723 0006610 228.2334 131.8341 15.29996701172443
NUSAT-42 (M WONENBURGER)
1 56966U 23084AL  26198.90977678  .00013286  00000+0  26857-3 0  9998
2 56966  97.5757 344.3491 0006828 137.7860 222.3916 15.46581692172820
NUSAT-44 (MARIA MITCHE*)
1 59122U 24043AA  26198.95074101  .00005887  00000+0  20609-3 0  9992
2 59122  97.5492 339.6850 0006596 123.7270 236.4600 15.29882542131977
NUSAT-50 (NANCY ROMAN)  
1 60493U 24149AB  26198.77407686  .00004925  00000+0  17037-3 0  9993
2 60493  97.3778 279.8256 0004885  95.5616 264.6182 15.30345080106804
NUSAT-48 (HENRIETTA LE*)
1 60498U 24149AG  26198.95933521  .00004829  00000+0  16733-3 0  9995
2 60498  97.3911 280.3066 0005020 150.6549 209.4975 15.30301907106845
NUSAT-49 (KLARA DAN VO*)
1 60500U 24149AJ  26198.21718721  .00001697  00000+0  61424-4 0  9999
2 60500  97.3781 279.3028 0002525 161.7492 198.3840 15.29800004106721
NUSAT-45 (UZMASAT-1)    
1 62640U 25009AH  26198.85984442  .00004717  00000+0  16586-3 0  9991
2 62640  97.3587 279.7832 0001968 169.1144 191.0140 15.29837885 83617
NUSAT-52                
1 66692U 25276AC  26198.62967699  .00002580  00000+0  12277-3 0  9997
2 66692  97.4195 271.6757 0001603 261.2782  98.8272 15.20050193 35043
NUSAT-51 (YVONNE BRILL) 
1 66740U 25276CC  26198.10355135  .00003054  00000+0  14256-3 0  9996
2 66740  97.4200 271.3028 0001872 225.3513 134.7570 15.20578227 34978
